BEIJING 1               
1 28890U 05043A   26095.88416201  .00000969  00000+0  19618-3 0  9992
2 28890  98.2787 228.7414 0015293 143.8099 216.4141 14.63489944 90079
HUANJING 1A (HJ-1A)     
1 33320U 08041A   26095.87995576  .00001898  00000+0  23448-3 0  9991
2 33320  97.6662  84.5376 0019716  20.6210 339.5796 14.83821953947687
HUANJING 1B (HJ-1B)     
1 33321U 08041B   26095.88480921  .00002153  00000+0  26671-3 0  9992
2 33321  97.6504  87.9273 0037973  61.7599 298.7440 14.83185626947690
YAOGAN-4                
1 33446U 08061A   26095.77588957  .00001847  00000+0  23319-3 0  9993
2 33446  97.9271  29.8447 0013203 310.8695  49.1373 14.83065097934930
DEIMOS-1                
1 35681U 09041A   26095.88088965  .00001559  00000+0  23787-3 0  9990
2 35681  97.7308 256.2785 0002726  77.5021 282.6494 14.75163583896228
UK-DMC 2                
1 35683U 09041C   26095.89049403  .00001991  00000+0  29696-3 0  9992
2 35683  97.8713 232.6765 0001528  96.9964 263.1419 14.75919333895904
DMC3-FM1                
1 40715U 15032A   26095.87149329  .00001685  00000+0  20030-3 0  9990
2 40715  97.6563 323.8440 0004200 302.7294  57.3517 14.85663304579179
DMC3-FM2                
1 40716U 15032B   26095.89376530  .00000767  00000+0  94454-4 0  9991
2 40716  97.6617 325.3894 0004873 308.0678  52.0098 14.85662509579173
DMC3-FM3                
1 40717U 15032C   26095.84950095  .00001194  00000+0  14371-3 0  9995
2 40717  97.6668 327.0530 0004137 309.0685  51.0162 14.85662400579179
