[{"OBJECT_NAME":"BEIJING 1","OBJECT_ID":"2005-043A","EPOCH":"2026-04-05T21:13:11.597664","MEAN_MOTION":14.63489944,"ECCENTRICITY":0.0015293,"INCLINATION":98.2787,"RA_OF_ASC_NODE":228.7414,"ARG_OF_PERICENTER":143.8099,"MEAN_ANOMALY":216.4141,"EPHEMERIS_TYPE":0,"CLASSIFICATION_TYPE":"U","NORAD_CAT_ID":28890,"ELEMENT_SET_NO":999,"REV_AT_EPOCH":9007,"BSTAR":0.00019618,"MEAN_MOTION_DOT":9.69e-6,"MEAN_MOTION_DDOT":0},{"OBJECT_NAME":"HUANJING 1A (HJ-1A)","OBJECT_ID":"2008-041A","EPOCH":"2026-04-05T21:07:08.177664","MEAN_MOTION":14.83821953,"ECCENTRICITY":0.0019716,"INCLINATION":97.6662,"RA_OF_ASC_NODE":84.5376,"ARG_OF_PERICENTER":20.621,"MEAN_ANOMALY":339.5796,"EPHEMERIS_TYPE":0,"CLASSIFICATION_TYPE":"U","NORAD_CAT_ID":33320,"ELEMENT_SET_NO":999,"REV_AT_EPOCH":94768,"BSTAR":0.00023448,"MEAN_MOTION_DOT":1.898e-5,"MEAN_MOTION_DDOT":0},{"OBJECT_NAME":"HUANJING 1B (HJ-1B)","OBJECT_ID":"2008-041B","EPOCH":"2026-04-05T21:14:07.515744","MEAN_MOTION":14.83185626,"ECCENTRICITY":0.0037973,"INCLINATION":97.6504,"RA_OF_ASC_NODE":87.9273,"ARG_OF_PERICENTER":61.7599,"MEAN_ANOMALY":298.744,"EPHEMERIS_TYPE":0,"CLASSIFICATION_TYPE":"U","NORAD_CAT_ID":33321,"ELEMENT_SET_NO":999,"REV_AT_EPOCH":94769,"BSTAR":0.00026671,"MEAN_MOTION_DOT":2.153e-5,"MEAN_MOTION_DDOT":0},{"OBJECT_NAME":"YAOGAN-4","OBJECT_ID":"2008-061A","EPOCH":"2026-04-05T18:37:16.858848","MEAN_MOTION":14.83065097,"ECCENTRICITY":0.0013203,"INCLINATION":97.9271,"RA_OF_ASC_NODE":29.8447,"ARG_OF_PERICENTER":310.8695,"MEAN_ANOMALY":49.1373,"EPHEMERIS_TYPE":0,"CLASSIFICATION_TYPE":"U","NORAD_CAT_ID":33446,"ELEMENT_SET_NO":999,"REV_AT_EPOCH":93493,"BSTAR":0.00023319,"MEAN_MOTION_DOT":1.847e-5,"MEAN_MOTION_DDOT":0},{"OBJECT_NAME":"DEIMOS-1","OBJECT_ID":"2009-041A","EPOCH":"2026-04-05T21:08:28.865760","MEAN_MOTION":14.75163583,"ECCENTRICITY":0.0002726,"INCLINATION":97.7308,"RA_OF_ASC_NODE":256.2785,"ARG_OF_PERICENTER":77.5021,"MEAN_ANOMALY":282.6494,"EPHEMERIS_TYPE":0,"CLASSIFICATION_TYPE":"U","NORAD_CAT_ID":35681,"ELEMENT_SET_NO":999,"REV_AT_EPOCH":89622,"BSTAR":0.00023787,"MEAN_MOTION_DOT":1.559e-5,"MEAN_MOTION_DDOT":0},{"OBJECT_NAME":"UK-DMC 2","OBJECT_ID":"2009-041C","EPOCH":"2026-04-05T21:22:18.684192","MEAN_MOTION":14.75919333,"ECCENTRICITY":0.0001528,"INCLINATION":97.8713,"RA_OF_ASC_NODE":232.6765,"ARG_OF_PERICENTER":96.9964,"MEAN_ANOMALY":263.1419,"EPHEMERIS_TYPE":0,"CLASSIFICATION_TYPE":"U","NORAD_CAT_ID":35683,"ELEMENT_SET_NO":999,"REV_AT_EPOCH":89590,"BSTAR":0.00029696,"MEAN_MOTION_DOT":1.991e-5,"MEAN_MOTION_DDOT":0},{"OBJECT_NAME":"DMC3-FM1","OBJECT_ID":"2015-032A","EPOCH":"2026-04-05T20:54:57.020256","MEAN_MOTION":14.85663304,"ECCENTRICITY":0.00042,"INCLINATION":97.6563,"RA_OF_ASC_NODE":323.844,"ARG_OF_PERICENTER":302.7294,"MEAN_ANOMALY":57.3517,"EPHEMERIS_TYPE":0,"CLASSIFICATION_TYPE":"U","NORAD_CAT_ID":40715,"ELEMENT_SET_NO":999,"REV_AT_EPOCH":57917,"BSTAR":0.0002003,"MEAN_MOTION_DOT":1.685e-5,"MEAN_MOTION_DDOT":0},{"OBJECT_NAME":"DMC3-FM2","OBJECT_ID":"2015-032B","EPOCH":"2026-04-05T21:27:01.321920","MEAN_MOTION":14.85662509,"ECCENTRICITY":0.0004873,"INCLINATION":97.6617,"RA_OF_ASC_NODE":325.3894,"ARG_OF_PERICENTER":308.0678,"MEAN_ANOMALY":52.0098,"EPHEMERIS_TYPE":0,"CLASSIFICATION_TYPE":"U","NORAD_CAT_ID":40716,"ELEMENT_SET_NO":999,"REV_AT_EPOCH":57917,"BSTAR":9.4454e-5,"MEAN_MOTION_DOT":7.67e-6,"MEAN_MOTION_DDOT":0},{"OBJECT_NAME":"DMC3-FM3","OBJECT_ID":"2015-032C","EPOCH":"2026-04-05T20:23:16.882080","MEAN_MOTION":14.856624,"ECCENTRICITY":0.0004137,"INCLINATION":97.6668,"RA_OF_ASC_NODE":327.053,"ARG_OF_PERICENTER":309.0685,"MEAN_ANOMALY":51.0162,"EPHEMERIS_TYPE":0,"CLASSIFICATION_TYPE":"U","NORAD_CAT_ID":40717,"ELEMENT_SET_NO":999,"REV_AT_EPOCH":57917,"BSTAR":0.00014371,"MEAN_MOTION_DOT":1.194e-5,"MEAN_MOTION_DDOT":0}]
